{
  "norad_id": 65606,
  "name": "STARLINK-35195",
  "history": [
    {
      "epoch": "2026-04-12T16:43:19.909344Z",
      "apogee_km": 550.1860842956921,
      "perigee_km": 548.8461376309697,
      "latitude_deg": 4.245210736632191e-05,
      "longitude_deg": 80.53715839592877,
      "height_km": 553.2391912441647,
      "semi_major_axis_km": 6927.653110963331,
      "eccentricity": 9.671e-05,
      "inclination_deg": 97.6018,
      "raan_deg": 172.2683,
      "arg_perigee_deg": 191.0796,
      "mean_anomaly_deg": 169.041,
      "mean_motion_rev_day": 15.05648384
    },
    {
      "epoch": "2026-04-14T14:58:37.755840Z",
      "apogee_km": 550.2320650925676,
      "perigee_km": 548.7675626701139,
      "latitude_deg": -1.079901425395671e-05,
      "longitude_deg": 106.71348284165013,
      "height_km": 553.2507608674194,
      "semi_major_axis_km": 6927.6368138813405,
      "eccentricity": 0.0001057,
      "inclination_deg": 97.6025,
      "raan_deg": 174.1686,
      "arg_perigee_deg": 200.6773,
      "mean_anomaly_deg": 159.4411,
      "mean_motion_rev_day": 15.05653697
    },
    {
      "epoch": "2026-04-15T16:29:49.700256Z",
      "apogee_km": 550.4084799866805,
      "perigee_km": 548.5892828042261,
      "latitude_deg": 1.1435157868515569e-05,
      "longitude_deg": 83.91304490912191,
      "height_km": 553.4398640832087,
      "semi_major_axis_km": 6927.635881395453,
      "eccentricity": 0.0001313,
      "inclination_deg": 97.6028,
      "raan_deg": 175.216,
      "arg_perigee_deg": 195.8283,
      "mean_anomaly_deg": 164.2903,
      "mean_motion_rev_day": 15.05654001
    },
    {
      "epoch": "2026-04-16T14:49:37.678944Z",
      "apogee_km": 550.4428292320354,
      "perigee_km": 548.5529704313622,
      "latitude_deg": 1.5009527200411293e-05,
      "longitude_deg": 108.96327475760482,
      "height_km": 553.4648597947696,
      "semi_major_axis_km": 6927.634899831699,
      "eccentricity": 0.0001364,
      "inclination_deg": 97.6044,
      "raan_deg": 176.1332,
      "arg_perigee_deg": 197.5287,
      "mean_anomaly_deg": 162.5893,
      "mean_motion_rev_day": 15.05654321
    },
    {
      "epoch": "2026-04-17T17:56:31.718112Z",
      "apogee_km": 550.5066122450598,
      "perigee_km": 548.4750161122738,
      "latitude_deg": -5.509588877451061e-07,
      "longitude_deg": 62.2384412837857,
      "height_km": 553.5247954511686,
      "semi_major_axis_km": 6927.627814178667,
      "eccentricity": 0.00014663,
      "inclination_deg": 97.604,
      "raan_deg": 177.2471,
      "arg_perigee_deg": 197.6474,
      "mean_anomaly_deg": 162.4702,
      "mean_motion_rev_day": 15.05656631
    },
    {
      "epoch": "2026-04-18T05:06:25.734240Z",
      "apogee_km": 550.5104121364939,
      "perigee_km": 548.4820011335914,
      "latitude_deg": 1.2183568322531914e-05,
      "longitude_deg": -105.23645775730847,
      "height_km": 553.5407067556762,
      "semi_major_axis_km": 6927.633206635042,
      "eccentricity": 0.0001464,
      "inclination_deg": 97.6035,
      "raan_deg": 177.7058,
      "arg_perigee_deg": 195.2299,
      "mean_anomaly_deg": 164.8884,
      "mean_motion_rev_day": 15.05654873
    },
    {
      "epoch": "2026-04-19T17:47:32.087040Z",
      "apogee_km": 550.0295966360673,
      "perigee_km": 548.9765953414781,
      "latitude_deg": -4.078154573047415e-06,
      "longitude_deg": 64.48397002248747,
      "height_km": 553.0947166865741,
      "semi_major_axis_km": 6927.640095988772,
      "eccentricity": 7.6e-05,
      "inclination_deg": 97.6,
      "raan_deg": 179.2093,
      "arg_perigee_deg": 181.8464,
      "mean_anomaly_deg": 178.276,
      "mean_motion_rev_day": 15.05652627
    },
    {
      "epoch": "2026-04-20T11:20:10.023936Z",
      "apogee_km": 550.6100810063535,
      "perigee_km": 547.3004548625795,
      "latitude_deg": 2.59613677659662e-06,
      "longitude_deg": 161.3240961722354,
      "height_km": 553.3118792309738,
      "semi_major_axis_km": 6927.092267934466,
      "eccentricity": 0.00023889,
      "inclination_deg": 97.5984,
      "raan_deg": 179.928,
      "arg_perigee_deg": 141.394,
      "mean_anomaly_deg": 218.7458,
      "mean_motion_rev_day": 15.05831242
    },
    {
      "epoch": "2026-04-21T17:38:31.835616Z",
      "apogee_km": 550.7524813184818,
      "perigee_km": 548.2626858551412,
      "latitude_deg": 5.7942707253757e-06,
      "longitude_deg": 66.73138504794672,
      "height_km": 553.8106665788212,
      "semi_major_axis_km": 6927.644583586812,
      "eccentricity": 0.0001797,
      "inclination_deg": 97.5917,
      "raan_deg": 181.1708,
      "arg_perigee_deg": 186.4422,
      "mean_anomaly_deg": 173.6782,
      "mean_motion_rev_day": 15.05651164
    },
    {
      "epoch": "2026-04-22T17:34:01.996320Z",
      "apogee_km": 550.6570307329066,
      "perigee_km": 548.3598235092732,
      "latitude_deg": 4.612455898525522e-05,
      "longitude_deg": 67.85804096464808,
      "height_km": 553.7177953449423,
      "semi_major_axis_km": 6927.64542712109,
      "eccentricity": 0.0001658,
      "inclination_deg": 97.5866,
      "raan_deg": 182.1557,
      "arg_perigee_deg": 174.7165,
      "mean_anomaly_deg": 185.408,
      "mean_motion_rev_day": 15.05650889
    },
    {
      "epoch": "2026-04-23T11:06:43.835904Z",
      "apogee_km": 551.9568752860459,
      "perigee_km": 547.0385317519349,
      "latitude_deg": -7.558184532400923e-05,
      "longitude_deg": 164.6837782941689,
      "height_km": 554.9035956953272,
      "semi_major_axis_km": 6927.63470351899,
      "eccentricity": 0.00035498,
      "inclination_deg": 97.5854,
      "raan_deg": 182.8763,
      "arg_perigee_deg": 162.1957,
      "mean_anomaly_deg": 197.9394,
      "mean_motion_rev_day": 15.05654385
    },
    {
      "epoch": "2026-04-24T17:25:01.579008Z",
      "apogee_km": 551.7658197445671,
      "perigee_km": 547.197747918508,
      "latitude_deg": 2.437618727748652e-05,
      "longitude_deg": 70.10425465487111,
      "height_km": 554.83181203947,
      "semi_major_axis_km": 6927.618783831537,
      "eccentricity": 0.0003297,
      "inclination_deg": 97.579,
      "raan_deg": 184.1153,
      "arg_perigee_deg": 181.1522,
      "mean_anomaly_deg": 178.9698,
      "mean_motion_rev_day": 15.05659575
    },
    {
      "epoch": "2026-04-25T18:56:13.983072Z",
      "apogee_km": 550.4921879660942,
      "perigee_km": 548.4831768082013,
      "latitude_deg": -4.635553325106168e-05,
      "longitude_deg": 47.29500634863394,
      "height_km": 553.5178324777396,
      "semi_major_axis_km": 6927.624682387147,
      "eccentricity": 0.000145,
      "inclination_deg": 97.5728,
      "raan_deg": 185.1558,
      "arg_perigee_deg": 163.7765,
      "mean_anomaly_deg": 196.3508,
      "mean_motion_rev_day": 15.05657652
    },
    {
      "epoch": "2026-04-26T18:51:44.029728Z",
      "apogee_km": 550.6048763310127,
      "perigee_km": 548.3582496310382,
      "latitude_deg": 3.5479492413359725e-05,
      "longitude_deg": 48.41603618745377,
      "height_km": 553.6004309756244,
      "semi_major_axis_km": 6927.618562981025,
      "eccentricity": 0.00016215,
      "inclination_deg": 97.5682,
      "raan_deg": 186.1346,
      "arg_perigee_deg": 159.6678,
      "mean_anomaly_deg": 200.4614,
      "mean_motion_rev_day": 15.05659647
    },
    {
      "epoch": "2026-04-27T18:47:14.008992Z",
      "apogee_km": 550.796403827705,
      "perigee_km": 548.1888440372577,
      "latitude_deg": 5.393212819064141e-05,
      "longitude_deg": 49.5361563158077,
      "height_km": 553.7631158269903,
      "semi_major_axis_km": 6927.629623932481,
      "eccentricity": 0.0001882,
      "inclination_deg": 97.5641,
      "raan_deg": 187.1122,
      "arg_perigee_deg": 157.5588,
      "mean_anomaly_deg": 202.5722,
      "mean_motion_rev_day": 15.05656041
    },
    {
      "epoch": "2026-04-28T18:42:44.193024Z",
      "apogee_km": 551.1157611639082,
      "perigee_km": 548.0107659057912,
      "latitude_deg": -7.607504549339873e-05,
      "longitude_deg": 50.65834048016691,
      "height_km": 554.168798456193,
      "semi_major_axis_km": 6927.700263534849,
      "eccentricity": 0.0002241,
      "inclination_deg": 97.5638,
      "raan_deg": 188.0927,
      "arg_perigee_deg": 187.7043,
      "mean_anomaly_deg": 172.4149,
      "mean_motion_rev_day": 15.05633012
    },
    {
      "epoch": "2026-04-29T18:38:14.254368Z",
      "apogee_km": 551.1160319684368,
      "perigee_km": 547.8642037993013,
      "latitude_deg": 4.17305147478486e-06,
      "longitude_deg": 51.77400910157398,
      "height_km": 554.0051797657278,
      "semi_major_axis_km": 6927.627117883869,
      "eccentricity": 0.0002347,
      "inclination_deg": 97.5549,
      "raan_deg": 189.0662,
      "arg_perigee_deg": 153.0887,
      "mean_anomaly_deg": 207.0462,
      "mean_motion_rev_day": 15.05656858
    },
    {
      "epoch": "2026-04-30T10:35:13.950816Z",
      "apogee_km": 550.8977130169415,
      "perigee_km": 548.0291322339408,
      "latitude_deg": 1.9892328783595827e-05,
      "longitude_deg": 172.52423191855377,
      "height_km": 553.7010566703557,
      "semi_major_axis_km": 6927.600422625441,
      "eccentricity": 0.00020704,
      "inclination_deg": 97.5516,
      "raan_deg": 189.7202,
      "arg_perigee_deg": 144.8387,
      "mean_anomaly_deg": 215.2977,
      "mean_motion_rev_day": 15.05665561
    },
    {
      "epoch": "2026-05-02T10:26:14.278272Z",
      "apogee_km": 550.9005046315551,
      "perigee_km": 548.1183618239711,
      "latitude_deg": -2.4427757078294585e-06,
      "longitude_deg": 174.758034479704,
      "height_km": 553.8313296293412,
      "semi_major_axis_km": 6927.646433227763,
      "eccentricity": 0.0002008,
      "inclination_deg": 97.5484,
      "raan_deg": 191.6705,
      "arg_perigee_deg": 154.5626,
      "mean_anomaly_deg": 205.57,
      "mean_motion_rev_day": 15.05650561
    }
  ]
}